#dP2022  6 10  0  0  0.00000000      96 __u+U ITR14 FIT  IAC
## 2213 432000.00000000   900.00000000 59740 0.0000000000000
+  126   C01C02C03C04C05C06C07C08C09C10C11C12C13C14C16C19C20
+        C21C22C23C24C25C26C27C28C29C30C32C33C34C35C36C37C38
+        C39C40C41C42C43C44C45C46C60E01E02E03E04E05E07E08E09
+        E10E11E12E13E14E15E18E19E21E24E25E26E27E30E31E33E34
+        E36G01G02G03G04G05G06G07G08G09G10G11G12G13G14G15G16
+        G17G18G19G20G21G22G23G24G25G26G27G28G29G30G31G32J02
+        J03J07R01R02R03R04R05R06R07R08R09R10R11R12R13R14R15
+        R17R18R19R20R21R23R24  0  0  0  0  0  0  0  0  0  0
++        17 16 17 17 17  9  9  9  9  0  8  9  9  9  9  7  7
++         7  7  7  7  7  7  7  7  7  7  7  7  7  7  7  7  8
++         8  8  7  7  7  7  8  7 17  4  4  4  5  4  4  4  5
++         5  4  4  4  4  4  5  4  4  4  4  4  4  4  5  4  4
++         4  4  4  4  4  3  4  4  3  4  3  4  4  4  3  3  4
++         4  3  4  4  4  4  3  3  4  4  3  4  4  3  4  4  8
++         8 17  7  6  6  6  6 15  6  6  6 15  6  6  7  6  6
++         6  6  7  7  6 15  6  0  0  0  0  0  0  0  0  0  0
%c M  cc GPS ccc cccc cccc cccc cccc ccccc ccccc ccccc ccccc
%c cc cc ccc ccc cccc cccc cccc cccc ccccc ccccc ccccc ccccc
%f  0.0000000  0.000000000  0.00000000000  0.000000000000000
%f  0.0000000  0.000000000  0.00000000000  0.000000000000000
%i    0    0    0    0      0      0      0      0         0
%i    0    0    0    0      0      0      0      0         0
/* INFORMATION & ANALYSIS CENTER (IAC)            RAPID DATA
/* S/V CLOCKS ARE ALIGNED TO GNSS TIME                      
/* G:C1WC2W R:C1PC2P E:C1XC5X C:C2IC6I J:C1CC2S             
/* PCV:IGS14_2196 OL/AL:FES2004  NONE     YN ORB:CoN CLK:CoN
*  2022 06 10 18 30  0.00000000
PC01 -34316.659630  24514.303771   -564.435264    292.634026
PC02   4489.682356  41954.716146     85.121697    -66.872960
PC03 -14756.683960  39521.638219   -885.842480   -530.856390
PC04 -39641.936644  14393.383397   -583.276129     18.480286
PC05  21971.818024  36059.644534    230.581214    254.561070
PC06 -10415.917170  23958.715943  33093.958841    162.505488
PC07 -13260.844173  39903.127031  -4219.934464   -281.667351
PC08   1475.488974  31832.462915 -27540.221862    356.131729
PC09  -2577.871452  24596.377707  34506.213202   -870.740469
PC10      0.000000      0.000000      0.000000 999999.999999
PC11 -18449.418261 -10923.445570  17934.737296    406.375845
PC12   1165.182250 -15429.118543  23249.870794   -600.969537
PC13   6312.154983  34846.878346 -22542.984372     -7.678481
PC14  -9195.875719 -15198.968376 -21482.723009    498.951020
PC16 -14677.151910  22845.350838  32378.724938    138.585989
PC19  14883.667117   5436.644825  22997.900192    859.757273
PC20   3230.300946  21407.609434  17643.996024   -953.261544
PC21  11198.897341 -25510.863617  -1270.519749   -459.428591
PC22  18442.261945 -14331.888557  15250.708772   -965.098478
PC23 -16849.851689   3339.731574  22001.419941   -933.356451
PC24 -11469.236243 -24704.887302  -6128.226471   -971.277137
PC25 -20813.547617 -14056.407722  12179.964691   -723.822989
PC26   2266.595391 -20287.988453 -19050.057035    725.344005
PC27 -11295.466310  15033.951889 -20639.520105    736.920449
PC28 -25819.788311   7097.005989  -7867.679973     77.017059
PC29  25577.520086   4516.445408 -10219.818699    566.588939
PC30   9695.682246  14318.380352 -21918.587195    499.709394
PC32 -11010.489758  25621.723121   1267.783798   -967.474257
PC33 -14908.566927  -5397.116273 -22956.702872   -968.913745
PC34 -10774.409914 -14037.144578  21556.245284   -383.807862
PC35  26052.553675  -7372.326128   6816.073066    314.611953
PC36  20398.128605  14986.665635 -11721.186588   -967.342820
PC37  -3783.252923  19447.994359  19663.743540   -908.948057
PC38  -5890.749860  28035.582610 -30869.044147      2.214526
PC39 -20275.640087  22317.545149  29444.637454     34.981439
PC40 -20341.862895  37025.889327  -1278.384925    276.335627
PC41 -18443.223988  14006.768807 -15520.536527   -969.701917
PC42  -2461.977153 -22037.346266 -16880.603323   -962.041885
PC43 -25217.517740  -5092.021923  10770.598331   -918.955340
PC44  11021.083833 -15487.807783  20424.810116    688.083863
PC45  16579.953057  -3605.080087 -22146.243662    780.016656
PC46  12570.715927  24449.467618   4690.723681   -371.944603
PC60   7260.227847  41526.218435  -1532.288774     -0.791670
PE01   1991.987138 -28871.805068  -6219.808856   -493.613271
PE02  -1879.812167  28905.114091   6060.256952    304.826221
PE03  -9267.588426  21749.064420  17825.635975   -567.440212
PE04 -10482.238673 -13484.412541 -24163.777874  -1047.150002
PE05 -23953.845284  17373.273477    868.502337   -173.390419
PE07  24493.270218  -2944.784330  16359.742491   -677.138098
PE08  10654.316324  13190.109924  24268.591555   -544.318258
PE09 -24468.659821   3195.902233 -16351.594416   -548.865864
PE10 -25932.257652 -13984.954479   2843.485073   -518.827107
PE11 -27626.227398  -7524.249942  -7489.861470   3393.102872
PE12 -20097.949478 -18041.397401  12082.026429     -4.083844
PE13  27680.872905   8000.905400   6792.980671    429.212561
PE14  20277.727967   8308.050555 -19366.700592  -1811.731211
PE15  20052.601360  18006.650287 -12250.597112    740.221808
PE18 -27076.929791   6012.267846   6630.048716  -1345.162981
PE19  11717.678672 -21824.178847 -16191.793355  -5411.967224
PE21  12586.488954 -17263.194349 -20487.288563   -739.388392
PE24 -16665.861115  -6398.708703  23602.932610   -663.453727
PE25 -12712.887184  16992.541290  20640.855024   -577.108030
PE26  18310.167688  -7378.706716  22052.271264  -1247.265240
PE27  16719.913586   4974.452750 -23908.752334   -319.070951
PE30  10424.408442  24751.146795 -12440.436787   -581.886522
PE31 -10987.503315 -24088.800186  13244.250567   -498.059577
PE33   -628.417346 -17340.616496  23975.317378   -455.768576
PE34    871.917009  17412.552855 -23932.874408   -521.493569
PE36 -18991.675673   6637.654547 -21713.914238   -386.230873
PG01  22500.375635  14473.005693   -203.236646    344.081871
PG02  -7288.972368 -18158.496324  18541.600675   -652.795491
PG03  12556.841480  13473.911906  19066.670611   -274.305914
PG04  18418.698423   5253.266348  18447.059213   -158.451257
PG05  -6239.849181 -24355.446777  -8496.198853    -85.050708
PG06   8230.452549 -12142.912271  22203.698047    338.283877
PG07  22703.053132   2809.834404 -13495.347009    321.912508
PG08  11291.343943  10820.344685 -21549.483409    -71.603722
PG09  23698.754061  -4297.495131  11160.715018   -329.527660
PG10 -11530.296311  17216.125491 -16297.013048   -449.664493
PG11  -5668.011042 -18955.250610  17724.480312    -16.081766
PG12  -9877.298228 -17748.610216  16905.898655   -229.084811
PG13   -671.592348 -15618.683834 -21602.510681    327.541471
PG14  13075.204654 -15753.797646 -16869.365733   -111.226422
PG15 -13347.919452  -9865.269554 -21191.518755    -54.282879
PG16    -89.101411  25994.311001  -4351.529927   -507.964863
PG17  21923.358785 -14172.431594   5463.246663    623.415028
PG18 -22408.689575  -3050.678112 -14031.638144    145.897014
PG19  17092.975995 -15885.741911  12217.635889    168.951335
PG20   -894.488645 -26444.811835   3461.105718    512.545029
PG21  18928.130808  16610.542546  -8824.915182    161.307245
PG22 -13981.768902  17344.972667  14743.439018    273.605093
PG23 -14624.058811   6153.944215 -21294.053377    -27.263892
PG24 -21715.211930 -15041.930572  -4721.340866    223.617983
PG25 -15052.759630  -2731.017368  21440.032506    335.736355
PG26  -4684.401275  24909.015456   7303.491245    211.493604
PG27  -2371.205444  17053.849302 -20326.454780    214.211690
PG28   9269.558310 -23002.462788  -9309.404049    340.769141
PG29 -24054.094629   2674.923319  10969.751524   -522.713348
PG30  16893.019823  -6251.966087 -19509.402345   -530.963092
PG31  -6446.242039  13957.844597  21499.820693   -181.264944
PG32 -19653.522158  16365.360764   6937.555453   -147.990780
PJ02 -26959.352074  25555.920050  25009.451334     -0.587781
PJ03 -30784.348340  17834.948415 -17927.829775     -2.759400
PJ07 -25373.456864  33681.689971     16.185323     -0.006485
PR01 -16376.885247   8946.134607 -17393.775207      9.757390
PR02 -14989.279637  20595.891003    464.640409    520.919802
PR03  -4218.205993  19031.891159  16469.200168     58.198520
PR04   8414.248949   6808.433857  23129.070821    145.810570
PR05  16652.921068  -9063.328473  17090.489371     94.392304
PR06  13904.461507 -21349.243846  -1441.180465    -53.163807
PR07   3803.916028 -18742.006974 -16861.892276     36.243861
PR08  -8579.903098  -6729.114011 -22999.506295    -65.618088
PR09   3492.951081 -15615.127748 -19820.129000     59.780664
PR10  -6807.359654 -23414.688886  -7614.416354    -83.191979
PR11 -14025.231619 -18588.177141  10407.326824     36.604654
PR12 -12483.388006  -1888.735528  22194.351058     18.805267
PR13  -4139.823820  14495.065405  20565.742788    -23.449419
PR14   7476.133761  23618.680833   6135.825231     25.296405
PR15  13993.615585  18184.590956 -11127.716861     95.492308
PR17   4966.833740  10860.328703 -22533.752875    533.763159
PR18  20481.040710   8253.326886 -12809.122022    119.839934
PR19  25251.688599   2618.573887   2459.392848   -192.229753
PR20  14796.036772  -6629.836635  19707.384474    -72.378731
PR21  -6629.385861 -10810.607872  22129.037811   -308.362396
PR23 -24182.720809    603.050238  -8103.643364    -43.793189
PR24 -14014.425814   7657.311078 -19886.321548     98.044939
EOF
